NORAD_CAT_ID,OBJECT_NAME,OBJECT_TYPE,EPOCH,MEAN_MOTION,ECCENTRICITY,INCLINATION,RA_OF_ASC_NODE,ARG_OF_PERICENTER,MEAN_ANOMALY,BSTAR,MEAN_MOTION_DOT,MEAN_MOTION_DDOT,TLE_LINE0,TLE_LINE1,TLE_LINE2,SEMIMAJOR_AXIS,PERIOD,APOGEE,PERIGEE,DECAYED
53389.0,STARLINK-4523,PAYLOAD,2023-02-02 12:49:28,15.08837019,0.0001118,53.2164,162.0828,86.5368,273.5752,6.8129e-06,-1.79e-06,0.0,0 STARLINK-4523,1 53389U 22097B   23033.53436296 -.00000179  00000-0  68129-5 0  9996,2 53389  53.2164 162.0828 0001118  86.5368 273.5752 15.08837019 27906,6917.89,95.438,540.528,538.981,0.0
53389.0,STARLINK-4523,PAYLOAD,2023-02-02 17:35:37,15.08845625,7.79e-05,53.2138,161.1887,30.7881,329.3157,-0.00010666,-1.985e-05,0.0,0 STARLINK-4523,1 53389U 22097B   23033.73307676 -.00001985  00000-0 -10666-3 0  9995,2 53389  53.2138 161.1887 0000779  30.7881 329.3157 15.08845625 27287,6917.863,95.437,540.267,539.189,0.0
53389.0,STARLINK-4523,PAYLOAD,2023-02-03 07:54:06,15.08834374,0.0001495,53.2134,158.512,96.2404,263.8759,2.7209e-05,1.45e-06,0.0,0 STARLINK-4523,1 53389U 22097B   23034.32924699  .00000145  00000-0  27209-4 0  9998,2 53389  53.2134 158.5120 0001495  96.2404 263.8759 15.08834374 27376,6917.898,95.438,540.797,538.728,0.0
53389.0,STARLINK-4523,PAYLOAD,2023-02-03 17:26:25,15.08840196,0.000128,53.2131,156.7277,88.6257,271.4882,7.9548e-05,9.78e-06,0.0,0 STARLINK-4523,1 53389U 22097B   23034.72668438  .00000978  00000-0  79548-4 0  9995,2 53389  53.2131 156.7277 0001280  88.6257 271.4882 15.08840196 28089,6917.88,95.438,540.63,538.859,0.0
53389.0,STARLINK-4523,PAYLOAD,2023-02-04 14:06:26,15.08844284,9.43e-05,53.2141,152.8661,54.7698,305.3382,0.00029705,4.443e-05,0.0,0 STARLINK-4523,1 53389U 22097B   23035.58780375  .00004443  00000-0  29705-3 0  9995,2 53389  53.2141 152.8661 0000943  54.7698 305.3382 15.08844284 27568,6917.867,95.437,540.385,539.08,0.0
53389.0,STARLINK-4523,PAYLOAD,2023-02-04 17:17:12,15.08847448,9.93e-05,53.214,152.271,61.9327,298.1765,0.000323,4.858e-05,0.0,0 STARLINK-4523,1 53389U 22097B   23035.72028218  .00004858  00000-0  32300-3 0  9997,2 53389  53.2140 152.2710 0000993  61.9327 298.1765 15.08847448 28234,6917.858,95.437,540.41,539.036,0.0
53389.0,STARLINK-4523,PAYLOAD,2023-02-05 01:14:08,15.08833699,0.0001556,53.2142,150.7839,84.6779,275.439,4.6618e-05,4.54e-06,0.0,0 STARLINK-4523,1 53389U 22097B   23036.05148999  .00000454  00000-0  46618-4 0  9999,2 53389  53.2142 150.7839 0001556  84.6779 275.4390 15.08833699 27638,6917.9,95.438,540.841,538.688,0.0
53389.0,STARLINK-4523,PAYLOAD,2023-02-05 13:57:13,15.08841224,0.0001185,53.2152,148.4059,79.5218,280.5908,9.463e-05,1.219e-05,0.0,0 STARLINK-4523,1 53389U 22097B   23036.58140658  .00001219  00000-0  94630-4 0  9998,2 53389  53.2152 148.4059 0001185  79.5218 280.5908 15.08841224 28362,6917.877,95.437,540.561,538.922,0.0
53389.0,STARLINK-4523,PAYLOAD,2023-02-05 18:43:22,15.08850265,0.0001079,53.2147,147.5104,105.3446,254.7665,0.00019782,2.863e-05,0.0,0 STARLINK-4523,1 53389U 22097B   23036.78012017  .00002863  00000-0  19782-3 0  9997,2 53389  53.2147 147.5104 0001079 105.3446 254.7665 15.08850265 27749,6917.849,95.437,540.46,538.968,0.0
53389.0,STARLINK-4523,PAYLOAD,2023-02-06 10:37:14,15.08838363,0.000117,53.2163,144.5411,64.7191,295.3922,4.9583e-05,5.01e-06,0.0,0 STARLINK-4523,1 53389U 22097B   23037.44252785  .00000501  00000-0  49583-4 0  9999,2 53389  53.2163 144.5411 0001170  64.7191 295.3922 15.08838363 27845,6917.885,95.438,540.56,538.941,0.0
53389.0,STARLINK-4523,PAYLOAD,2023-02-06 12:12:37,15.08841248,0.000133,53.2159,144.2433,65.1183,294.9947,0.0001179,1.589e-05,0.0,0 STARLINK-4523,1 53389U 22097B   23037.50876739  .00001589  00000-0  11790-3 0  9992,2 53389  53.2159 144.2433 0001330  65.1183 294.9947 15.08841248 28507,6917.877,95.437,540.662,538.821,0.0
53389.0,STARLINK-4523,PAYLOAD,2023-02-06 16:58:46,15.08850471,0.0001185,53.2156,143.3451,106.0988,254.0135,0.00026134,3.875e-05,0.0,0 STARLINK-4523,1 53389U 22097B   23037.70748083  .00003875  00000-0  26134-3 0  9992,2 53389  53.2156 143.3451 0001185 106.0988 254.0135 15.08850471 27884,6917.848,95.437,540.533,538.894,0.0
53389.0,STARLINK-4523,PAYLOAD,2023-02-07 12:03:23,15.08863831,0.0001207,53.2153,139.7779,108.1547,251.9576,0.00062703,9.712e-05,0.0,0 STARLINK-4523,1 53389U 22097B   23038.50235570  .00009712  00000-0  62703-3 0  9991,2 53389  53.2153 139.7779 0001207 108.1547 251.9576 15.08863831 28657,6917.808,95.436,540.508,538.838,0.0
53389.0,STARLINK-4523,PAYLOAD,2023-02-07 16:49:32,15.08880383,0.0001031,53.2157,138.8871,97.7702,262.3407,0.0017838,0.00028247,0.0,0 STARLINK-4523,1 53389U 22097B   23038.70107323  .00028247  00000-0  17838-2 0  9999,2 53389  53.2157 138.8871 0001031  97.7702 262.3407 15.08880383 28037,6917.757,95.435,540.335,538.909,0.0
53389.0,STARLINK-4523,PAYLOAD,2023-02-08 07:08:01,15.08833821,0.0001368,53.216,136.2095,113.2713,246.8424,0.00084241,0.00013142,0.0,0 STARLINK-4523,1 53389U 22097B   23039.29724356  .00013142  00000-0  84241-3 0  9996,2 53389  53.2160 136.2095 0001368 113.2713 246.8424 15.08833821 28121,6917.899,95.438,540.711,538.818,0.0
53389.0,STARLINK-4523,PAYLOAD,2023-02-08 13:29:34,15.08828065,0.00015,53.216,135.0171,110.9338,249.1814,1.6137e-05,-3.1e-07,0.0,0 STARLINK-4523,1 53389U 22097B   23039.56220606 -.00000031  00000-0  16137-4 0  9999,2 53389  53.2160 135.0171 0001500 110.9338 249.1814 15.08828065 28817,6917.917,95.438,540.82,538.744,0.0
53389.0,STARLINK-4523,PAYLOAD,2023-02-09 11:44:59,15.08840117,0.0001515,53.2167,130.8621,95.2605,264.856,0.00062952,9.745e-05,0.0,0 STARLINK-4523,1 53389U 22097B   23040.48957397  .00009745  00000-0  62952-3 0  9991,2 53389  53.2167 130.8621 0001515  95.2605 264.8560 15.08840117 28954,6917.88,95.438,540.793,538.697,0.0
53389.0,STARLINK-4523,PAYLOAD,2023-02-09 13:20:22,15.08845224,0.0001569,53.2166,130.5642,89.4561,270.6611,0.00083812,0.00013078,0.0,0 STARLINK-4523,1 53389U 22097B   23040.55581367  .00013078  00000-0  83812-3 0  9991,2 53389  53.2166 130.5642 0001569  89.4561 270.6611 15.08845224 28314,6917.864,95.437,540.815,538.644,0.0
53389.0,STARLINK-4523,PAYLOAD,2023-02-10 10:00:23,15.08846848,0.0001365,53.2159,126.6992,102.9292,257.1853,0.00054077,8.33e-05,0.0,0 STARLINK-4523,1 53389U 22097B   23041.41693414  .00008330  00000-0  54077-3 0  9990,2 53389  53.2159 126.6992 0001365 102.9292 257.1853 15.08846848 28441,6917.859,95.437,540.669,538.78,0.0
53389.0,STARLINK-4523,PAYLOAD,2023-02-10 22:43:28,15.08845707,0.0001493,53.2143,124.3198,103.1343,256.9815,0.00042788,6.529e-05,0.0,0 STARLINK-4523,1 53389U 22097B   23041.94685366  .00006529  00000-0  42788-3 0  9999,2 53389  53.2143 124.3198 0001493 103.1343 256.9815 15.08845707 28526,6917.863,95.437,540.761,538.695,0.0
53389.0,STARLINK-4523,PAYLOAD,2023-02-11 11:26:33,15.08837647,0.0001842,53.2163,121.9349,116.3237,243.7944,3.8872e-05,3.31e-06,0.0,0 STARLINK-4523,1 53389U 22097B   23042.47677740  .00000331  00000-0  38872-4 0  9990,2 53389  53.2163 121.9349 0001842 116.3237 243.7944 15.08837647 29257,6917.888,95.438,541.027,538.478,0.0
53389.0,STARLINK-4523,PAYLOAD,2023-02-11 22:34:15,15.08839177,0.0001381,53.2164,119.8574,92.5918,267.5232,7.9336e-05,9.75e-06,0.0,0 STARLINK-4523,1 53389U 22097B   23042.94045719  .00000975  00000-0  79336-4 0  9991,2 53389  53.2164 119.8574 0001381  92.5918 267.5232 15.08839177 28672,6917.883,95.438,540.703,538.793,0.0
53389.0,STARLINK-4523,PAYLOAD,2023-02-12 11:17:20,15.08846782,0.000133,53.2139,117.4785,102.5976,257.5165,0.00023925,3.522e-05,0.0,0 STARLINK-4523,1 53389U 22097B   23043.47037587  .00003522  00000-0  23925-3 0  9997,2 53389  53.2139 117.4785 0001330 102.5976 257.5165 15.08846782 29408,6917.86,95.437,540.645,538.805,0.0
53389.0,STARLINK-4523,PAYLOAD,2023-02-13 04:46:36,15.08806,0.0001267,53.215,114.2068,96.2213,263.8923,-0.00033696,-5.641e-05,0.0,0 STARLINK-4523,1 53389U 22097B   23044.19903887 -.00005641  00000-0 -33696-3 0  9994,2 53389  53.2150 114.2068 0001267  96.2213 263.8923 15.08806000 28862,6917.984,95.44,540.726,538.973,0.0
53389.0,STARLINK-4523,PAYLOAD,2023-02-13 14:18:56,15.08813314,0.000136,53.2137,112.4226,105.1877,254.9265,-0.00021144,-3.649e-05,0.0,0 STARLINK-4523,1 53389U 22097B   23044.59648247 -.00003649  00000-0 -21144-3 0  9995,2 53389  53.2137 112.4226 0001360 105.1877 254.9265 15.08813314 28926,6917.962,95.439,540.768,538.886,0.0
53389.0,STARLINK-4523,PAYLOAD,2023-02-14 10:58:55,15.08868967,9.86e-05,53.2147,108.556,94.8191,265.2914,0.00088514,0.00013838,0.0,0 STARLINK-4523,1 53389U 22097B   23045.45758502  .00013838  00000-0  88514-3 0  9990,2 53389  53.2147 108.5560 0000986  94.8191 265.2914 15.08868967 29055,6917.792,95.436,540.339,538.975,0.0
53389.0,STARLINK-4523,PAYLOAD,2023-02-14 14:09:41,15.08873447,0.000122,53.2148,107.9604,93.939,266.1742,0.00088632,0.00013859,0.0,0 STARLINK-4523,1 53389U 22097B   23045.59006124  .00013859  00000-0  88632-3 0  9995,2 53389  53.2148 107.9604 0001220  93.9390 266.1742 15.08873447 29723,6917.778,95.435,540.487,538.799,0.0
53389.0,STARLINK-4523,PAYLOAD,2023-02-14 20:31:13,15.08848786,0.000189,53.2139,106.7693,87.4228,272.698,0.00026596,3.948e-05,0.0,0 STARLINK-4523,1 53389U 22097B   23045.85502232  .00003948  00000-0  26596-3 0  9994,2 53389  53.2139 106.7693 0001890  87.4228 272.6980 15.08848786 29116,6917.854,95.437,541.026,538.411,0.0
53389.0,STARLINK-4523,PAYLOAD,2023-02-15 07:38:56,15.08848358,0.0001128,53.2151,104.6898,100.715,259.3969,0.00026314,3.903e-05,0.0,0 STARLINK-4523,1 53389U 22097B   23046.31870519  .00003903  00000-0  26314-3 0  9991,2 53389  53.2151 104.6898 0001128 100.7150 259.3969 15.08848358 29182,6917.855,95.437,540.5,538.94,0.0
53389.0,STARLINK-4523,PAYLOAD,2023-02-15 12:25:04,15.08870295,0.000114,53.2157,103.7968,95.7044,264.4078,0.0005061,7.782e-05,0.0,0 STARLINK-4523,1 53389U 22097B   23046.51741455  .00007782  00000-0  50610-3 0  9994,2 53389  53.2157 103.7968 0001140  95.7044 264.4078 15.08870295 29212,6917.788,95.436,540.441,538.864,0.0
